STARLINK-1069
1 14955C 20001AT  21326.14432424  .00001428  00000-0  95685-4 0  3264
2 14955  53.0527 148.1046 0001818  81.1657 309.1887 15.06386222    13
